IRIDIUM 171             
1 43929U 19002H   25317.29753233  .00000311  00000+0  10405-3 0  9998
2 43929  86.3959  84.1083 0001954 100.9907 259.1509 14.34219448358016
IRIDIUM 170             
1 43930U 19002J   25317.29972687  .00003135  00000+0  49315-3 0  9995
2 43930  86.6073  83.8271 0002318  90.3286 269.8197 14.72252641367497
IRIDIUM 167             
1 43931U 19002K   25317.29118610  .00000296  00000+0  98594-4 0  9993
2 43931  86.3950  83.8490 0001609 102.6958 257.4418 14.34217871358018
IRIDIUM 181             
1 56726U 23068S   25317.07607533  .00000195  00000+0  51857-4 0  9998
2 56726  86.4506 147.1155 0002396  99.0224 261.1248 14.43313206131261
IRIDIUM 177             
1 56727U 23068T   25317.26783843  .00003704  00000+0  48382-3 0  9996
2 56727  86.1955  71.3236 0002235  89.9987 270.1490 14.80239525134423
IRIDIUM 174             
1 56728U 23068U   25317.28737110  .00002786  00000+0  43772-3 0  9992
2 56728  86.6078  83.9577 0002290  86.7897 273.3582 14.72259025134254
IRIDIUM 178             
1 56729U 23068V   25316.71612367  .00001100  00000+0  14134-3 0  9995
2 56729  86.6516 115.8450 0002003  94.8788 265.2662 14.80240161134347
IRIDIUM 179             
1 56730U 23068W   25317.25156690  .00000412  00000+0  50813-4 0  9999
2 56730  86.6760 123.9542 0001892 106.1647 253.9783 14.80235807134426
